[{"OBJECT_NAME":"SCS-01 J","OBJECT_ID":"2025-100J","EPOCH":"2026-03-09T22:31:25.904064","MEAN_MOTION":15.31338011,"ECCENTRICITY":0.00063909,"INCLINATION":97.3693,"RA_OF_ASC_NODE":145.4824,"ARG_OF_PERICENTER":272.025,"MEAN_ANOMALY":88.026,"EPHEMERIS_TYPE":0,"CLASSIFICATION_TYPE":"U","NORAD_CAT_ID":63990,"ELEMENT_SET_NO":999,"REV_AT_EPOCH":4563,"BSTAR":0.0011832888,"MEAN_MOTION_DOT":0.00035886,"MEAN_MOTION_DDOT":0},{"OBJECT_NAME":"STARLINK-34791","OBJECT_ID":"2025-224K","EPOCH":"2026-03-09T23:27:49.248576","MEAN_MOTION":15.30234471,"ECCENTRICITY":0.00013171,"INCLINATION":53.1612,"RA_OF_ASC_NODE":10.3449,"ARG_OF_PERICENTER":98.5779,"MEAN_ANOMALY":261.5371,"EPHEMERIS_TYPE":0,"CLASSIFICATION_TYPE":"U","NORAD_CAT_ID":65891,"ELEMENT_SET_NO":999,"REV_AT_EPOCH":2491,"BSTAR":0.0010465324,"MEAN_MOTION_DOT":0.00030798,"MEAN_MOTION_DDOT":0}]
